[{"OBJECT_NAME":"ONEWEB-0161","OBJECT_ID":"2021-025M","EPOCH":"2026-02-20T05:40:19.241184","MEAN_MOTION":13.13471867,"ECCENTRICITY":0.00019753,"INCLINATION":87.9038,"RA_OF_ASC_NODE":343.4743,"ARG_OF_PERICENTER":79.4313,"MEAN_ANOMALY":280.7038,"EPHEMERIS_TYPE":0,"CLASSIFICATION_TYPE":"U","NORAD_CAT_ID":48053,"ELEMENT_SET_NO":999,"REV_AT_EPOCH":23815,"BSTAR":-6.7444343e-5,"MEAN_MOTION_DOT":-1.2e-7,"MEAN_MOTION_DDOT":0},{"OBJECT_NAME":"ONEWEB-0158","OBJECT_ID":"2021-025N","EPOCH":"2026-02-20T04:41:48.714144","MEAN_MOTION":13.13468298,"ECCENTRICITY":0.00014799,"INCLINATION":87.9051,"RA_OF_ASC_NODE":343.4713,"ARG_OF_PERICENTER":81.2071,"MEAN_ANOMALY":278.9226,"EPHEMERIS_TYPE":0,"CLASSIFICATION_TYPE":"U","NORAD_CAT_ID":48054,"ELEMENT_SET_NO":999,"REV_AT_EPOCH":23827,"BSTAR":0.00052428726,"MEAN_MOTION_DOT":2.04e-6,"MEAN_MOTION_DDOT":0},{"OBJECT_NAME":"ONEWEB-0157","OBJECT_ID":"2021-025P","EPOCH":"2026-02-19T20:09:52.977600","MEAN_MOTION":13.13467841,"ECCENTRICITY":0.0002161,"INCLINATION":87.9048,"RA_OF_ASC_NODE":343.5471,"ARG_OF_PERICENTER":83.7811,"MEAN_ANOMALY":276.3565,"EPHEMERIS_TYPE":0,"CLASSIFICATION_TYPE":"U","NORAD_CAT_ID":48055,"ELEMENT_SET_NO":999,"REV_AT_EPOCH":23816,"BSTAR":-0.00092971,"MEAN_MOTION_DOT":-3.27e-6,"MEAN_MOTION_DDOT":0},{"OBJECT_NAME":"ONEWEB-0162","OBJECT_ID":"2021-025Q","EPOCH":"2026-02-20T04:44:04.021728","MEAN_MOTION":13.13469881,"ECCENTRICITY":0.00018897,"INCLINATION":87.9049,"RA_OF_ASC_NODE":343.4805,"ARG_OF_PERICENTER":73.7591,"MEAN_ANOMALY":286.3746,"EPHEMERIS_TYPE":0,"CLASSIFICATION_TYPE":"U","NORAD_CAT_ID":48056,"ELEMENT_SET_NO":999,"REV_AT_EPOCH":23818,"BSTAR":0.00031361491,"MEAN_MOTION_DOT":1.27e-6,"MEAN_MOTION_DDOT":0},{"OBJECT_NAME":"ONEWEB-0155","OBJECT_ID":"2021-025R","EPOCH":"2026-02-20T04:53:59.763552","MEAN_MOTION":13.13470209,"ECCENTRICITY":0.000187,"INCLINATION":87.9042,"RA_OF_ASC_NODE":343.4793,"ARG_OF_PERICENTER":84.3913,"MEAN_ANOMALY":275.7429,"EPHEMERIS_TYPE":0,"CLASSIFICATION_TYPE":"U","NORAD_CAT_ID":48057,"ELEMENT_SET_NO":999,"REV_AT_EPOCH":23832,"BSTAR":-0.00011615072,"MEAN_MOTION_DOT":-3.0e-7,"MEAN_MOTION_DDOT":0},{"OBJECT_NAME":"ONEWEB-0149","OBJECT_ID":"2021-025S","EPOCH":"2026-02-20T05:25:40.511712","MEAN_MOTION":13.13470386,"ECCENTRICITY":0.00018873,"INCLINATION":87.9048,"RA_OF_ASC_NODE":343.471,"ARG_OF_PERICENTER":72.8961,"MEAN_ANOMALY":287.2375,"EPHEMERIS_TYPE":0,"CLASSIFICATION_TYPE":"U","NORAD_CAT_ID":48058,"ELEMENT_SET_NO":999,"REV_AT_EPOCH":23813,"BSTAR":-0.0012353978,"MEAN_MOTION_DOT":-4.38e-6,"MEAN_MOTION_DDOT":0},{"OBJECT_NAME":"ONEWEB-0148","OBJECT_ID":"2021-025T","EPOCH":"2026-02-20T06:21:46.380096","MEAN_MOTION":13.13469431,"ECCENTRICITY":0.00022513,"INCLINATION":87.9042,"RA_OF_ASC_NODE":343.4787,"ARG_OF_PERICENTER":68.0716,"MEAN_ANOMALY":292.0652,"EPHEMERIS_TYPE":0,"CLASSIFICATION_TYPE":"U","NORAD_CAT_ID":48059,"ELEMENT_SET_NO":999,"REV_AT_EPOCH":23826,"BSTAR":0.00084154061,"MEAN_MOTION_DOT":3.2e-6,"MEAN_MOTION_DDOT":0},{"OBJECT_NAME":"ONEWEB-0160","OBJECT_ID":"2021-025U","EPOCH":"2026-02-20T04:56:25.558368","MEAN_MOTION":13.13467776,"ECCENTRICITY":0.00011025,"INCLINATION":87.904,"RA_OF_ASC_NODE":343.4871,"ARG_OF_PERICENTER":67.7872,"MEAN_ANOMALY":292.3374,"EPHEMERIS_TYPE":0,"CLASSIFICATION_TYPE":"U","NORAD_CAT_ID":48060,"ELEMENT_SET_NO":999,"REV_AT_EPOCH":23820,"BSTAR":-0.00027021078,"MEAN_MOTION_DOT":-8.6e-7,"MEAN_MOTION_DDOT":0},{"OBJECT_NAME":"ONEWEB-0163","OBJECT_ID":"2021-025V","EPOCH":"2026-02-20T06:24:12.183552","MEAN_MOTION":13.13470308,"ECCENTRICITY":0.00020466,"INCLINATION":87.9047,"RA_OF_ASC_NODE":343.4662,"ARG_OF_PERICENTER":84.926,"MEAN_ANOMALY":275.2102,"EPHEMERIS_TYPE":0,"CLASSIFICATION_TYPE":"U","NORAD_CAT_ID":48061,"ELEMENT_SET_NO":999,"REV_AT_EPOCH":23833,"BSTAR":0.0007046271,"MEAN_MOTION_DOT":2.7e-6,"MEAN_MOTION_DDOT":0},{"OBJECT_NAME":"ONEWEB-0159","OBJECT_ID":"2021-025W","EPOCH":"2026-02-20T06:11:59.578944","MEAN_MOTION":13.13472509,"ECCENTRICITY":0.00020114,"INCLINATION":87.905,"RA_OF_ASC_NODE":343.4536,"ARG_OF_PERICENTER":77.85,"MEAN_ANOMALY":282.2855,"EPHEMERIS_TYPE":0,"CLASSIFICATION_TYPE":"U","NORAD_CAT_ID":48062,"ELEMENT_SET_NO":999,"REV_AT_EPOCH":23825,"BSTAR":0.0010015694,"MEAN_MOTION_DOT":3.79e-6,"MEAN_MOTION_DDOT":0},{"OBJECT_NAME":"ONEWEB-0164","OBJECT_ID":"2021-025X","EPOCH":"2026-02-20T05:45:11.191104","MEAN_MOTION":13.13471532,"ECCENTRICITY":0.00017248,"INCLINATION":87.9048,"RA_OF_ASC_NODE":343.464,"ARG_OF_PERICENTER":78.876,"MEAN_ANOMALY":281.2563,"EPHEMERIS_TYPE":0,"CLASSIFICATION_TYPE":"U","NORAD_CAT_ID":48063,"ELEMENT_SET_NO":999,"REV_AT_EPOCH":23823,"BSTAR":0.00034526436,"MEAN_MOTION_DOT":1.39e-6,"MEAN_MOTION_DDOT":0},{"OBJECT_NAME":"ONEWEB-0167","OBJECT_ID":"2021-025Y","EPOCH":"2026-02-20T04:35:43.776096","MEAN_MOTION":13.13469488,"ECCENTRICITY":0.00020461,"INCLINATION":87.9039,"RA_OF_ASC_NODE":343.4944,"ARG_OF_PERICENTER":99.3607,"MEAN_ANOMALY":260.7754,"EPHEMERIS_TYPE":0,"CLASSIFICATION_TYPE":"U","NORAD_CAT_ID":48064,"ELEMENT_SET_NO":999,"REV_AT_EPOCH":23821,"BSTAR":0.00057395991,"MEAN_MOTION_DOT":2.22e-6,"MEAN_MOTION_DDOT":0},{"OBJECT_NAME":"ONEWEB-0166","OBJECT_ID":"2021-025Z","EPOCH":"2026-02-20T05:08:36.728736","MEAN_MOTION":13.13468227,"ECCENTRICITY":0.00019628,"INCLINATION":87.9046,"RA_OF_ASC_NODE":343.4515,"ARG_OF_PERICENTER":75.9376,"MEAN_ANOMALY":284.1971,"EPHEMERIS_TYPE":0,"CLASSIFICATION_TYPE":"U","NORAD_CAT_ID":48065,"ELEMENT_SET_NO":999,"REV_AT_EPOCH":23829,"BSTAR":-0.00069173656,"MEAN_MOTION_DOT":-2.4e-6,"MEAN_MOTION_DDOT":0},{"OBJECT_NAME":"ONEWEB-0151","OBJECT_ID":"2021-025AA","EPOCH":"2026-02-20T05:11:03.708960","MEAN_MOTION":13.13471241,"ECCENTRICITY":0.00017712,"INCLINATION":87.9043,"RA_OF_ASC_NODE":343.4779,"ARG_OF_PERICENTER":83.3362,"MEAN_ANOMALY":276.7969,"EPHEMERIS_TYPE":0,"CLASSIFICATION_TYPE":"U","NORAD_CAT_ID":48066,"ELEMENT_SET_NO":999,"REV_AT_EPOCH":23823,"BSTAR":-0.00070693382,"MEAN_MOTION_DOT":-2.45e-6,"MEAN_MOTION_DDOT":0},{"OBJECT_NAME":"ONEWEB-0170","OBJECT_ID":"2021-025AB","EPOCH":"2026-02-20T05:23:14.173440","MEAN_MOTION":13.13469485,"ECCENTRICITY":0.00014181,"INCLINATION":87.904,"RA_OF_ASC_NODE":343.4782,"ARG_OF_PERICENTER":87.4674,"MEAN_ANOMALY":272.6617,"EPHEMERIS_TYPE":0,"CLASSIFICATION_TYPE":"U","NORAD_CAT_ID":48067,"ELEMENT_SET_NO":999,"REV_AT_EPOCH":23819,"BSTAR":-0.0011993351,"MEAN_MOTION_DOT":-4.25e-6,"MEAN_MOTION_DDOT":0},{"OBJECT_NAME":"ONEWEB-0168","OBJECT_ID":"2021-025AC","EPOCH":"2026-02-20T05:01:18.170976","MEAN_MOTION":13.13468169,"ECCENTRICITY":0.00019913,"INCLINATION":87.9051,"RA_OF_ASC_NODE":343.4709,"ARG_OF_PERICENTER":79.6861,"MEAN_ANOMALY":280.4493,"EPHEMERIS_TYPE":0,"CLASSIFICATION_TYPE":"U","NORAD_CAT_ID":48068,"ELEMENT_SET_NO":999,"REV_AT_EPOCH":23820,"BSTAR":-0.00038953277,"MEAN_MOTION_DOT":-1.3e-6,"MEAN_MOTION_DDOT":0}]
