ONEWEB-0161             
1 48053U 21025M   26051.23633381 -.00000012  00000+0 -67444-4 0  9996
2 48053  87.9038 343.4743 0001975  79.4313 280.7038 13.13471867238152
ONEWEB-0158             
1 48054U 21025N   26051.19570271  .00000204  00000+0  52429-3 0  9997
2 48054  87.9051 343.4713 0001479  81.2071 278.9226 13.13468298238271
ONEWEB-0157             
1 48055U 21025P   26050.84019650 -.00000327  00000+0 -92971-3 0  9992
2 48055  87.9048 343.5471 0002161  83.7811 276.3565 13.13467841238167
ONEWEB-0162             
1 48056U 21025Q   26051.19726877  .00000127  00000+0  31361-3 0  9990
2 48056  87.9049 343.4805 0001889  73.7591 286.3746 13.13469881238189
ONEWEB-0155             
1 48057U 21025R   26051.20416393 -.00000030  00000+0 -11615-3 0  9997
2 48057  87.9042 343.4793 0001870  84.3913 275.7429 13.13470209238327
ONEWEB-0149             
1 48058U 21025S   26051.22616333 -.00000438  00000+0 -12354-2 0  9998
2 48058  87.9048 343.4710 0001887  72.8961 287.2375 13.13470386238139
ONEWEB-0148             
1 48059U 21025T   26051.26512014  .00000320  00000+0  84154-3 0  9990
2 48059  87.9042 343.4787 0002251  68.0716 292.0652 13.13469431238264
ONEWEB-0160             
1 48060U 21025U   26051.20585137 -.00000086  00000+0 -27021-3 0  9993
2 48060  87.9040 343.4871 0001102  67.7872 292.3374 13.13467776238209
ONEWEB-0163             
1 48061U 21025V   26051.26680768  .00000270  00000+0  70463-3 0  9997
2 48061  87.9047 343.4662 0002046  84.9260 275.2102 13.13470308238333
ONEWEB-0159             
1 48062U 21025W   26051.25832846  .00000379  00000+0  10016-2 0  9990
2 48062  87.9050 343.4536 0002011  77.8500 282.2855 13.13472509238257
ONEWEB-0164             
1 48063U 21025X   26051.23971286  .00000139  00000+0  34526-3 0  9998
2 48063  87.9048 343.4640 0001724  78.8760 281.2563 13.13471532238238
ONEWEB-0167             
1 48064U 21025Y   26051.19147889  .00000222  00000+0  57396-3 0  9991
2 48064  87.9039 343.4944 0002046  99.3607 260.7754 13.13469488238211
ONEWEB-0166             
1 48065U 21025Z   26051.21431399 -.00000240  00000+0 -69174-3 0  9996
2 48065  87.9046 343.4515 0001962  75.9376 284.1971 13.13468227238292
ONEWEB-0151             
1 48066U 21025AA  26051.21601515 -.00000245  00000+0 -70693-3 0  9999
2 48066  87.9043 343.4779 0001771  83.3362 276.7969 13.13471241238236
ONEWEB-0170             
1 48067U 21025AB  26051.22446960 -.00000425  00000+0 -11993-2 0  9999
2 48067  87.9040 343.4782 0001418  87.4674 272.6617 13.13469485238194
ONEWEB-0168             
1 48068U 21025AC  26051.20923809 -.00000130  00000+0 -38953-3 0  9999
2 48068  87.9051 343.4709 0001991  79.6861 280.4493 13.13468169238202
